STARLINK-36257
1 67903U 26035AA  26061.16668981 -.00767550  21333-3 -11168-2 0  9997
2 67903  97.2769 352.9150 0000888 102.2175 160.4450 16.05230269  2594
